{"type": "FeatureCollection", "features": [ {"type": "Feature", "properties": {"norad_id": 37926, "name": "FENGYUN 1C DEB", "group": "fengyun-1c-debris", "lat": 68.48078334447224, "lon": -116.85302790199657, "alt_km": 833.9808825031841, "timestamp": "2025-12-02T23:34:15.805962+00:00", "meta": {"OBJECT_NAME": "FENGYUN 1C DEB", "OBJECT_ID": "1999-025EPB", "EPOCH": "2025-12-02T03:08:35.325024", "MEAN_MOTION": 14.24095392, "ECCENTRICITY": 0.00533864, "INCLINATION": 98.7254, "RA_OF_ASC_NODE": 39.3797, "ARG_OF_PERICENTER": 251.7953, "MEAN_ANOMALY": 177.074, "EPHEMERIS_TYPE": 0, "CLASSIFICATION_TYPE": "U", "NORAD_CAT_ID": 37926, "ELEMENT_SET_NO": 999, "REV_AT_EPOCH": 74119, "BSTAR": 0.0018273618, "MEAN_MOTION_DOT": 4.223e-05, "MEAN_MOTION_DDOT": 0}, "tle": {"line1": "1 37926U 99025EPB 25336.13096441  .00004223  00000+0  18274-2 0  9993", "line2": "2 37926  98.7254  39.3797 0053386 251.7953 177.0740 14.24095392741196"}}, "geometry": {"type": "Point", "coordinates": [-116.85302790199657, 68.48078334447224]}}, {"type": "Feature", "properties": {"norad_id": 37927, "name": "FENGYUN 1C DEB", "group": "fengyun-1c-debris", "lat": -40.872223416441685, "lon": -67.84201409073286, "alt_km": 663.2473416191824, "timestamp": "2025-12-02T23:34:15.805972+00:00", "meta": {"OBJECT_NAME": "FENGYUN 1C DEB", "OBJECT_ID": "1999-025EPC", "EPOCH": "2025-11-29T16:11:45.032064", "MEAN_MOTION": 14.70717717, "ECCENTRICITY": 0.00076239, "INCLINATION": 98.8072, "RA_OF_ASC_NODE": 116.2969, "ARG_OF_PERICENTER": 304.8102, "MEAN_ANOMALY": 55.2384, "EPHEMERIS_TYPE": 0, "CLASSIFICATION_TYPE": "U", "NORAD_CAT_ID": 37927, "ELEMENT_SET_NO": 999, "REV_AT_EPOCH": 64924, "BSTAR": 0.0038923403, "MEAN_MOTION_DOT": 0.00023758, "MEAN_MOTION_DDOT": 0}, "tle": {"line1": "1 37927U 99025EPC 25333.67482676  .00023758  00000+0  38923-2 0  9996", "line2": "2 37927  98.8072 116.2969 0007623 304.8102  55.2384 14.70717717649248"}}, "geometry": {"type": "Point", "coordinates": [-67.84201409073286, -40.872223416441685]}}, {"type": "Feature", "properties": {"norad_id": 37928, "name": "FENGYUN 1C DEB", "group": "fengyun-1c-debris", "lat": -74.73939931638122, "lon": -113.64803602712375, "alt_km": 814.8738022130001, "timestamp": "2025-12-02T23:34:15.805982+00:00", "meta": {"OBJECT_NAME": "FENGYUN 1C DEB", "OBJECT_ID": "1999-025EPD", "EPOCH": "2025-11-28T09:38:34.088352", "MEAN_MOTION": 14.37023237, "ECCENTRICITY": 0.00733565, "INCLINATION": 98.9159, "RA_OF_ASC_NODE": 206.4819, "ARG_OF_PERICENTER": 74.7645, "MEAN_ANOMALY": 286.1636, "EPHEMERIS_TYPE": 0, "CLASSIFICATION_TYPE": "U", "NORAD_CAT_ID": 37928, "ELEMENT_SET_NO": 999, "REV_AT_EPOCH": 80986, "BSTAR": 0.00065957038, "MEAN_MOTION_DOT": 1.971e-05, "MEAN_MOTION_DDOT": 0}, "tle": {"line1": "1 37928U 99025EPD 25332.40178343  .00001971  00000+0  65957-3 0  9991", "line2": "2 37928  98.9159 206.4819 0073356  74.7645 286.1636 14.37023237809864"}}, "geometry": {"type": "Point", "coordinates": [-113.64803602712375, -74.73939931638122]}}, {"type": "Feature", "properties": {"norad_id": 38116, "name": "FENGYUN 1C DEB", "group": "fengyun-1c-debris", "lat": -70.2606480412395, "lon": 41.21663762900478, "alt_km": 863.1897298780923, "timestamp": "2025-12-02T23:34:15.805992+00:00", "meta": {"OBJECT_NAME": "FENGYUN 1C DEB", "OBJECT_ID": "1999-025EPM", "EPOCH": "2025-11-28T20:45:55.302624", "MEAN_MOTION": 14.16973073, "ECCENTRICITY": 0.0072, "INCLINATION": 98.7141, "RA_OF_ASC_NODE": 11.879, "ARG_OF_PERICENTER": 186.1596, "MEAN_ANOMALY": 351.8835, "EPHEMERIS_TYPE": 0, "CLASSIFICATION_TYPE": "U", "NORAD_CAT_ID": 38116, "ELEMENT_SET_NO": 999, "REV_AT_EPOCH": 64288, "BSTAR": 0.00050837388, "MEAN_MOTION_DOT": 1.004e-05, "MEAN_MOTION_DDOT": 0}, "tle": {"line1": "1 38116U 99025EPM 25332.86522341  .00001004  00000+0  50837-3 0  9990", "line2": "2 38116  98.7141  11.8790 0072000 186.1596 351.8835 14.16973073642884"}}, "geometry": {"type": "Point", "coordinates": [41.21663762900478, -70.2606480412395]}}, {"type": "Feature", "properties": {"norad_id": 38121, "name": "FENGYUN 1C DEB", "group": "fengyun-1c-debris", "lat": 30.77629702477901, "lon": 122.64370383880885, "alt_km": 899.7280591394838, "timestamp": "2025-12-02T23:34:15.806002+00:00", "meta": {"OBJECT_NAME": "FENGYUN 1C DEB", "OBJECT_ID": "1999-025EPS", "EPOCH": "2025-11-29T04:12:17.244576", "MEAN_MOTION": 14.2162433, "ECCENTRICITY": 0.02065546, "INCLINATION": 99.115, "RA_OF_ASC_NODE": 124.1974, "ARG_OF_PERICENTER": 166.4816, "MEAN_ANOMALY": 194.2011, "EPHEMERIS_TYPE": 0, "CLASSIFICATION_TYPE": "U", "NORAD_CAT_ID": 38121, "ELEMENT_SET_NO": 999, "REV_AT_EPOCH": 83727, "BSTAR": 0.001349076, "MEAN_MOTION_DOT": 3.628e-05, "MEAN_MOTION_DDOT": 0}, "tle": {"line1": "1 38121U 99025EPS 25333.17519959  .00003628  00000+0  13491-2 0  9990", "line2": "2 38121  99.1150 124.1974 0206554 166.4816 194.2011 14.21624330837275"}}, "geometry": {"type": "Point", "coordinates": [122.64370383880885, 30.77629702477901]}}, {"type": "Feature", "properties": {"norad_id": 38122, "name": "FENGYUN 1C DEB", "group": "fengyun-1c-debris", "lat": -41.25282580928805, "lon": -12.981519070466485, "alt_km": 862.6613908860854, "timestamp": "2025-12-02T23:34:15.806024+00:00", "meta": {"OBJECT_NAME": "FENGYUN 1C DEB", "OBJECT_ID": "1999-025EPT", "EPOCH": "2025-12-01T11:08:56.211936", "MEAN_MOTION": 14.42584925, "ECCENTRICITY": 0.02274427, "INCLINATION": 98.3168, "RA_OF_ASC_NODE": 338.1659, "ARG_OF_PERICENTER": 191.0164, "MEAN_ANOMALY": 168.5999, "EPHEMERIS_TYPE": 0, "CLASSIFICATION_TYPE": "U", "NORAD_CAT_ID": 38122, "ELEMENT_SET_NO": 999, "REV_AT_EPOCH": 67576, "BSTAR": 0.00049183009, "MEAN_MOTION_DOT": 2.179e-05, "MEAN_MOTION_DDOT": 0}, "tle": {"line1": "1 38122U 99025EPT 25335.46453949  .00002179  00000+0  49183-3 0  9999", "line2": "2 38122  98.3168 338.1659 0227442 191.0164 168.5999 14.42584925675763"}}, "geometry": {"type": "Point", "coordinates": [-12.981519070466485, -41.25282580928805]}}, {"type": "Feature", "properties": {"norad_id": 38124, "name": "FENGYUN 1C DEB", "group": "fengyun-1c-debris", "lat": -32.410760631888515, "lon": 106.76410311421878, "alt_km": 1232.996015321458, "timestamp": "2025-12-02T23:34:15.806034+00:00", "meta": {"OBJECT_NAME": "FENGYUN 1C DEB", "OBJECT_ID": "1999-025EPV", "EPOCH": "2025-11-17T02:51:17.993664", "MEAN_MOTION": 13.40908773, "ECCENTRICITY": 0.03570409, "INCLINATION": 97.805, "RA_OF_ASC_NODE": 279.4801, "ARG_OF_PERICENTER": 12.4947, "MEAN_ANOMALY": 348.4759, "EPHEMERIS_TYPE": 0, "CLASSIFICATION_TYPE": "U", "NORAD_CAT_ID": 38124, "ELEMENT_SET_NO": 999, "REV_AT_EPOCH": 54238, "BSTAR": 0.00079426358, "MEAN_MOTION_DOT": 6.08e-06, "MEAN_MOTION_DDOT": 0}, "tle": {"line1": "1 38124U 99025EPV 25321.11895826  .00000608  00000+0  79426-3 0  9990", "line2": "2 38124  97.8050 279.4801 0357040  12.4947 348.4759 13.40908773542380"}}, "geometry": {"type": "Point", "coordinates": [106.76410311421878, -32.410760631888515]}}, {"type": "Feature", "properties": {"norad_id": 38130, "name": "FENGYUN 1C DEB", "group": "fengyun-1c-debris", "lat": 77.83911144198035, "lon": -15.027174316638732, "alt_km": 1117.1895630078207, "timestamp": "2025-12-02T23:34:15.806047+00:00", "meta": {"OBJECT_NAME": "FENGYUN 1C DEB", "OBJECT_ID": "1999-025EQB", "EPOCH": "2025-11-28T09:19:02.490528", "MEAN_MOTION": 13.7720595, "ECCENTRICITY": 0.02085156, "INCLINATION": 98.6035, "RA_OF_ASC_NODE": 25.4413, "ARG_OF_PERICENTER": 263.5047, "MEAN_ANOMALY": 94.2329, "EPHEMERIS_TYPE": 0, "CLASSIFICATION_TYPE": "U", "NORAD_CAT_ID": 38130, "ELEMENT_SET_NO": 999, "REV_AT_EPOCH": 69085, "BSTAR": 0.0016964005, "MEAN_MOTION_DOT": 1.933e-05, "MEAN_MOTION_DDOT": 0}, "tle": {"line1": "1 38130U 99025EQB 25332.38822327  .00001933  00000+0  16964-2 0  9993", "line2": "2 38130  98.6035  25.4413 0208515 263.5047  94.2329 13.77205950690851"}}, "geometry": {"type": "Point", "coordinates": [-15.027174316638732, 77.83911144198035]}}, {"type": "Feature", "properties": {"norad_id": 38135, "name": "FENGYUN 1C DEB", "group": "fengyun-1c-debris", "lat": -31.40920266556928, "lon": -151.45632686848003, "alt_km": 870.6925869749839, "timestamp": "2025-12-02T23:34:15.806057+00:00", "meta": {"OBJECT_NAME": "FENGYUN 1C DEB", "OBJECT_ID": "1999-025EQG", "EPOCH": "2025-12-01T23:00:54.921600", "MEAN_MOTION": 14.25234724, "ECCENTRICITY": 0.02234685, "INCLINATION": 98.6604, "RA_OF_ASC_NODE": 32.8729, "ARG_OF_PERICENTER": 102.7051, "MEAN_ANOMALY": 259.9208, "EPHEMERIS_TYPE": 0, "CLASSIFICATION_TYPE": "U", "NORAD_CAT_ID": 38135, "ELEMENT_SET_NO": 999, "REV_AT_EPOCH": 60887, "BSTAR": 0.00054370055, "MEAN_MOTION_DOT": 1.614e-05, "MEAN_MOTION_DDOT": 0}, "tle": {"line1": "1 38135U 99025EQG 25335.95896900  .00001614  00000+0  54370-3 0  9992", "line2": "2 38135  98.6604  32.8729 0223468 102.7051 259.9208 14.25234724608875"}}, "geometry": {"type": "Point", "coordinates": [-151.45632686848003, -31.40920266556928]}}, {"type": "Feature", "properties": {"norad_id": 38137, "name": "FENGYUN 1C DEB", "group": "fengyun-1c-debris", "lat": 34.977097464113385, "lon": -153.79781322411762, "alt_km": 847.5315093384825, "timestamp": "2025-12-02T23:34:15.806069+00:00", "meta": {"OBJECT_NAME": "FENGYUN 1C DEB", "OBJECT_ID": "1999-025EQJ", "EPOCH": "2025-12-01T22:58:56.830944", "MEAN_MOTION": 14.06144852, "ECCENTRICITY": 0.00467475, "INCLINATION": 98.8664, "RA_OF_ASC_NODE": 18.9297, "ARG_OF_PERICENTER": 99.0728, "MEAN_ANOMALY": 261.5734, "EPHEMERIS_TYPE": 0, "CLASSIFICATION_TYPE": "U", "NORAD_CAT_ID": 38137, "ELEMENT_SET_NO": 999, "REV_AT_EPOCH": 63557, "BSTAR": 0.00025939815, "MEAN_MOTION_DOT": 3.88e-06, "MEAN_MOTION_DDOT": 0}, "tle": {"line1": "1 38137U 99025EQJ 25335.95760221  .00000388  00000+0  25940-3 0  9998", "line2": "2 38137  98.8664  18.9297 0046747  99.0728 261.5734 14.06144852635573"}}, "geometry": {"type": "Point", "coordinates": [-153.79781322411762, 34.977097464113385]}}]}